NORAD_CAT_ID,OBJECT_NAME,OBJECT_TYPE,EPOCH,MEAN_MOTION,ECCENTRICITY,INCLINATION,RA_OF_ASC_NODE,ARG_OF_PERICENTER,MEAN_ANOMALY,BSTAR,MEAN_MOTION_DOT,MEAN_MOTION_DDOT,TLE_LINE0,TLE_LINE1,TLE_LINE2,SEMIMAJOR_AXIS,PERIOD,APOGEE,PERIGEE,DECAYED
55780.0,STARLINK-5819,PAYLOAD,2024-05-18 14:37:25,14.98333103,0.0002548,69.9998,88.5851,274.1946,85.8922,-9.4702e-05,-1.223e-05,0.0,0 STARLINK-5819,1 55780U 23028AR  24139.60932746 -.00001223  00000-0 -94702-4 0  9992,2 55780  69.9998  88.5851 0002548 274.1946  85.8922 14.98333103 67668,6950.183,96.107,573.819,570.277,0.0
55780.0,STARLINK-5819,PAYLOAD,2024-05-18 21:01:57,14.98337703,0.0002632,69.9995,87.9111,274.6111,85.4747,1.3337e-05,6.6e-07,0.0,0 STARLINK-5819,1 55780U 23028AR  24139.87636057  .00000066  00000-0  13337-4 0  9994,2 55780  69.9995  87.9111 0002632 274.6111  85.4747 14.98337703 67706,6950.169,96.107,573.863,570.205,0.0
55780.0,STARLINK-5819,PAYLOAD,2024-05-18 22:38:05,14.98338275,0.0002685,69.9996,87.7428,274.1555,85.9297,3.7253e-05,3.52e-06,0.0,0 STARLINK-5819,1 55780U 23028AR  24139.94311935  .00000352  00000-0  37253-4 0  9998,2 55780  69.9996  87.7428 0002685 274.1555  85.9297 14.98338275 67712,6950.167,96.106,573.898,570.166,0.0
55780.0,STARLINK-5819,PAYLOAD,2024-05-19 03:26:29,14.98347438,0.0002599,69.9999,87.2378,272.9481,87.138,3.4961e-05,3.24e-06,0.0,0 STARLINK-5819,1 55780U 23028AR  24140.14339391  .00000324  00000-0  34961-4 0  9990,2 55780  69.9999  87.2378 0002599 272.9481  87.1380 14.98347438 67743,6950.139,96.106,573.81,570.198,0.0
55780.0,STARLINK-5819,PAYLOAD,2024-05-19 06:38:45,14.98348957,0.0002589,70.0001,86.9012,273.2065,86.8798,7.7593e-05,8.33e-06,0.0,0 STARLINK-5819,1 55780U 23028AR  24140.27691174  .00000833  00000-0  77593-4 0  9997,2 55780  70.0001  86.9012 0002589 273.2065  86.8798 14.98348957 67760,6950.134,96.106,573.799,570.2,0.0
55780.0,STARLINK-5819,PAYLOAD,2024-05-19 21:03:59,14.98319408,0.0002798,70.001,85.3862,270.6177,89.4661,0.00016473,1.873e-05,0.0,0 STARLINK-5819,1 55780U 23028AR  24140.87777167  .00001873  00000-0  16473-3 0  9994,2 55780  70.0010  85.3862 0002798 270.6177  89.4661 14.98319408 67850,6950.226,96.108,574.035,570.146,0.0
55780.0,STARLINK-5819,PAYLOAD,2024-05-20 05:04:39,14.98328337,0.0002867,70.0008,84.5438,267.5062,92.5769,3.1606e-05,2.84e-06,0.0,0 STARLINK-5819,1 55780U 23028AR  24141.21156667  .00000284  00000-0  31606-4 0  9990,2 55780  70.0008  84.5438 0002867 267.5062  92.5769 14.98328337 67903,6950.198,96.107,574.056,570.07,0.0
55780.0,STARLINK-5819,PAYLOAD,2024-05-21 05:06:40,14.98331629,0.000264,70.0015,82.0199,262.5989,97.487,0.00017467,1.992e-05,0.0,0 STARLINK-5819,1 55780U 23028AR  24142.21297035  .00001992  00000-0  17467-3 0  9991,2 55780  70.0015  82.0199 0002640 262.5989  97.4870 14.98331629 68052,6950.188,96.107,573.888,570.218,0.0
55780.0,STARLINK-5819,PAYLOAD,2024-05-21 06:42:48,14.98332309,0.000263,70.0015,81.8515,261.1559,98.9302,0.00020308,2.331e-05,0.0,0 STARLINK-5819,1 55780U 23028AR  24142.27973022  .00002331  00000-0  20308-3 0  9990,2 55780  70.0015  81.8515 0002630 261.1559  98.9302 14.98332309 68061,6950.186,96.107,573.879,570.223,0.0
55780.0,STARLINK-5819,PAYLOAD,2024-05-21 22:44:09,14.98335235,0.0002521,70.0021,80.1685,254.3577,105.7304,0.00041754,4.893e-05,0.0,0 STARLINK-5819,1 55780U 23028AR  24142.94733103  .00004893  00000-0  41754-3 0  9991,2 55780  70.0021  80.1685 0002521 254.3577 105.7304 14.98335235 68162,6950.177,96.107,573.794,570.29,0.0
55780.0,STARLINK-5819,PAYLOAD,2024-05-22 05:08:41,14.98340252,0.0002481,70.0025,79.4956,251.9861,108.1027,0.00047282,5.555e-05,0.0,0 STARLINK-5819,1 55780U 23028AR  24143.21436906  .00005555  00000-0  47282-3 0  9991,2 55780  70.0025  79.4956 0002481 251.9861 108.1027 14.98340252 68201,6950.161,96.106,573.751,570.302,0.0
55780.0,STARLINK-5819,PAYLOAD,2024-05-22 21:10:02,14.98331992,0.0002212,70.0035,77.8133,255.0908,105.0006,0.00037346,4.366e-05,0.0,0 STARLINK-5819,1 55780U 23028AR  24143.88197185  .00004366  00000-0  37346-3 0  9996,2 55780  70.0035  77.8133 0002212 255.0908 105.0006 14.98331992 68305,6950.187,96.107,573.589,570.514,0.0
55780.0,STARLINK-5819,PAYLOAD,2024-05-23 05:10:42,14.98330419,0.0002309,70.0032,76.9716,255.9586,104.1317,6.1821e-05,6.45e-06,0.0,0 STARLINK-5819,1 55780U 23028AR  24144.21577130  .00000645  00000-0  61821-4 0  9998,2 55780  70.0032  76.9716 0002309 255.9586 104.1317 14.98330419 68350,6950.192,96.107,573.661,570.452,0.0
55780.0,STARLINK-5819,PAYLOAD,2024-05-23 21:12:02,14.98338011,0.0002405,70.0027,75.289,260.4974,99.5914,0.00010976,1.217e-05,0.0,0 STARLINK-5819,1 55780U 23028AR  24144.88336673  .00001217  00000-0  10976-3 0  9996,2 55780  70.0027  75.2890 0002405 260.4974  99.5914 14.98338011 68455,6950.168,96.106,573.705,570.362,0.0
55780.0,STARLINK-5819,PAYLOAD,2024-05-24 03:36:34,14.98339835,0.0002391,70.0012,74.6156,259.0861,101.0029,0.00010994,1.219e-05,0.0,0 STARLINK-5819,1 55780U 23028AR  24145.15040459  .00001219  00000-0  10994-3 0  9993,2 55780  70.0012  74.6156 0002391 259.0861 101.0029 14.98339835 68495,6950.162,96.106,573.689,570.366,0.0
55780.0,STARLINK-5819,PAYLOAD,2024-05-24 05:12:42,14.98341653,0.0002481,70.001,74.4461,267.1287,92.9588,0.00011937,1.332e-05,0.0,0 STARLINK-5819,1 55780U 23028AR  24145.21716292  .00001332  00000-0  11937-3 0  9999,2 55780  70.0010  74.4461 0002481 267.1287  92.9588 14.98341653 68503,6950.157,96.106,573.746,570.298,0.0
55780.0,STARLINK-5819,PAYLOAD,2024-05-24 21:14:04,14.98328497,0.0002384,70.002,72.763,274.9068,85.1819,9.4639e-05,1.036e-05,0.0,0 STARLINK-5819,1 55780U 23028AR  24145.88477119  .00001036  00000-0  94639-4 0  9996,2 55780  70.0020  72.7630 0002384 274.9068  85.1819 14.98328497 68601,6950.198,96.107,573.719,570.406,0.0
55780.0,STARLINK-5819,PAYLOAD,2024-05-24 22:50:12,14.98324141,0.0002292,70.0018,72.5949,267.2788,92.8108,0.00011125,1.235e-05,0.0,0 STARLINK-5819,1 55780U 23028AR  24145.95153301  .00001235  00000-0  11125-3 0  9997,2 55780  70.0018  72.5949 0002292 267.2788  92.8108 14.98324141 68610,6950.211,96.107,573.669,570.483,0.0
55780.0,STARLINK-5819,PAYLOAD,2024-05-25 05:14:44,14.9832444,0.0002371,70.0016,71.9231,260.8919,99.1971,2.3949e-05,1.93e-06,0.0,0 STARLINK-5819,1 55780U 23028AR  24146.21857399  .00000193  00000-0  23949-4 0  9995,2 55780  70.0016  71.9231 0002371 260.8919  99.1971 14.98324440 68652,6950.21,96.107,573.723,570.427,0.0
55780.0,STARLINK-5819,PAYLOAD,2024-05-26 03:40:37,14.98329111,0.0002654,70.0011,69.5649,269.3423,90.7432,1.8664e-05,1.3e-06,0.0,0 STARLINK-5819,1 55780U 23028AR  24147.15321124  .00000130  00000-0  18664-4 0  9990,2 55780  70.0011  69.5649 0002654 269.3423  90.7432 14.98329111 68795,6950.196,96.107,573.905,570.216,0.0
55780.0,STARLINK-5819,PAYLOAD,2024-05-26 05:16:45,14.98330303,0.0002696,70.0009,69.3968,264.5382,95.547,2.2951e-05,1.81e-06,0.0,0 STARLINK-5819,1 55780U 23028AR  24147.21996997  .00000181  00000-0  22951-4 0  9993,2 55780  70.0009  69.3968 0002696 264.5382  95.5470 14.98330303 68803,6950.192,96.107,573.931,570.183,0.0
55780.0,STARLINK-5819,PAYLOAD,2024-05-26 22:54:13,14.98331388,0.00028,70.0008,67.5453,262.1312,97.9529,0.00011267,1.252e-05,0.0,0 STARLINK-5819,1 55780U 23028AR  24147.95432620  .00001252  00000-0  11267-3 0  9999,2 55780  70.0008  67.5453 0002800 262.1312  97.9529 14.98331388 68912,6950.189,96.107,574.0,570.108,0.0
55780.0,STARLINK-5819,PAYLOAD,2024-05-27 03:42:35,14.98360791,0.000285,70.0006,67.0405,258.1274,101.9565,0.0004528,5.318e-05,0.0,0 STARLINK-5819,1 55780U 23028AR  24148.15457985  .00005318  00000-0  45280-3 0  9992,2 55780  70.0006  67.0405 0002850 258.1274 101.9565 14.98360791 68948,6950.098,96.105,573.943,569.982,0.0
55780.0,STARLINK-5819,PAYLOAD,2024-05-27 11:43:17,14.98343945,0.0002414,70.0033,66.2028,231.8518,128.2423,0.00016891,1.924e-05,0.0,0 STARLINK-5819,1 55780U 23028AR  24148.48839598  .00001924  00000-0  16891-3 0  9997,2 55780  70.0033  66.2028 0002414 231.8518 128.2423 14.98343945 68997,6950.15,96.106,573.693,570.337,0.0
55780.0,STARLINK-5819,PAYLOAD,2024-05-27 19:43:56,14.98349794,0.0002418,70.0025,65.3581,243.8831,116.208,0.0002943,3.422e-05,0.0,0 STARLINK-5819,1 55780U 23028AR  24148.82218186  .00003422  00000-0  29430-3 0  9997,2 55780  70.0025  65.3581 0002418 243.8831 116.2080 14.98349794 69048,6950.132,96.106,573.677,570.316,0.0
55780.0,STARLINK-5819,PAYLOAD,2024-05-27 22:56:12,14.9834838,0.0002509,70.0022,65.0214,244.1666,115.9235,0.00025907,3.001e-05,0.0,0 STARLINK-5819,1 55780U 23028AR  24148.95570170  .00003001  00000-0  25907-3 0  9993,2 55780  70.0022  65.0214 0002509 244.1666 115.9235 14.98348380 69066,6950.136,96.106,573.745,570.257,0.0
55780.0,STARLINK-5819,PAYLOAD,2024-05-28 11:45:16,14.98348177,0.0002486,70.0019,63.6748,253.4243,106.6643,0.00017839,2.037e-05,0.0,0 STARLINK-5819,1 55780U 23028AR  24149.48977773  .00002037  00000-0  17839-3 0  9995,2 55780  70.0019  63.6748 0002486 253.4243 106.6643 14.98348177 69149,6950.137,96.106,573.729,570.274,0.0
55780.0,STARLINK-5819,PAYLOAD,2024-05-28 19:45:58,14.98331338,0.0002886,70.005,62.8425,216.2245,143.8719,-0.0001213,-1.54e-05,0.0,0 STARLINK-5819,1 55780U 23028AR  24149.82359642 -.00001540  00000-0 -12130-3 0  9991,2 55780  70.0050  62.8425 0002886 216.2245 143.8719 14.98331338 69193,6950.189,96.107,574.06,570.048,0.0
55780.0,STARLINK-5819,PAYLOAD,2024-05-28 21:22:07,14.98327885,0.0002971,70.0012,62.6661,258.1933,101.8893,-0.00016285,-2.035e-05,0.0,0 STARLINK-5819,1 55780U 23028AR  24149.89036012 -.00002035  00000-0 -16285-3 0  9996,2 55780  70.0012  62.6661 0002971 258.1933 101.8893 14.98327885 69206,6950.199,96.107,574.129,570.0,0.0
55780.0,STARLINK-5819,PAYLOAD,2024-05-29 03:46:39,14.98323448,0.0003198,70.0001,61.9903,266.7115,93.3678,-0.00020549,-2.544e-05,0.0,0 STARLINK-5819,1 55780U 23028AR  24150.15740391 -.00002544  00000-0 -20549-3 0  9992,2 55780  70.0001  61.9903 0003198 266.7115  93.3678 14.98323448 69245,6950.213,96.107,574.301,569.855,0.0
